NORAD_CAT_ID,OBJECT_NAME,OBJECT_TYPE,EPOCH,MEAN_MOTION,ECCENTRICITY,INCLINATION,RA_OF_ASC_NODE,ARG_OF_PERICENTER,MEAN_ANOMALY,BSTAR,MEAN_MOTION_DOT,MEAN_MOTION_DDOT,TLE_LINE0,TLE_LINE1,TLE_LINE2,SEMIMAJOR_AXIS,PERIOD,APOGEE,PERIGEE,DECAYED
52675.0,STARLINK-3934,PAYLOAD,2023-04-10 02:08:16,15.08847794,0.0001192,53.2158,243.2987,83.2756,276.8372,0.00068769,0.00010676,0.0,0 STARLINK-3934,1 52675U 22053V   23100.08908236  .00010676  00000-0  68769-3 0  9998,2 52675  53.2158 243.2987 0001192  83.2756 276.8372 15.08847794 50025,6917.857,95.437,540.546,538.897,0.0
52675.0,STARLINK-3934,PAYLOAD,2023-04-10 10:05:12,15.08848935,0.0001271,53.2163,241.8124,86.4494,273.6644,0.0004715,7.226e-05,0.0,0 STARLINK-3934,1 52675U 22053V   23100.42028127  .00007226  00000-0  47150-3 0  9996,2 52675  53.2163 241.8124 0001271  86.4494 273.6644 15.08848935 50508,6917.853,95.437,540.597,538.839,0.0
52675.0,STARLINK-3934,PAYLOAD,2023-04-10 16:26:44,15.08859716,0.0001283,53.2164,240.6235,87.0679,273.046,0.00070196,0.00010907,0.0,0 STARLINK-3934,1 52675U 22053V   23100.68523730  .00010907  00000-0  70196-3 0  9990,2 52675  53.2164 240.6235 0001283  87.0679 273.0460 15.08859716 50547,6917.82,95.436,540.573,538.798,0.0
52675.0,STARLINK-3934,PAYLOAD,2023-04-11 01:59:02,15.08857542,6.55e-05,53.2155,238.841,95.3257,264.781,0.00050841,7.817e-05,0.0,0 STARLINK-3934,1 52675U 22053V   23101.08267337  .00007817  00000-0  50841-3 0  9994,2 52675  53.2155 238.8410 0000655  95.3257 264.7810 15.08857542 50177,6917.827,95.436,540.145,539.239,0.0
52675.0,STARLINK-3934,PAYLOAD,2023-04-11 09:55:58,15.08846623,0.0001599,53.2167,237.3522,89.7196,270.3979,0.00012855,1.759e-05,0.0,0 STARLINK-3934,1 52675U 22053V   23101.41387672  .00001759  00000-0  12855-3 0  9998,2 52675  53.2167 237.3522 0001599  89.7196 270.3979 15.08846623 50228,6917.86,95.437,540.831,538.619,0.0
52675.0,STARLINK-3934,PAYLOAD,2023-04-12 09:46:46,15.08832332,0.000124,53.219,232.8941,100.6428,259.4704,-0.00018779,-3.275e-05,0.0,0 STARLINK-3934,1 52675U 22053V   23102.40747991 -.00003275  00000-0 -18779-3 0  9990,2 52675  53.2190 232.8941 0001240 100.6428 259.4704 15.08832332 50375,6917.904,95.438,540.627,538.911,0.0
52675.0,STARLINK-3934,PAYLOAD,2023-04-13 08:02:10,15.08842803,0.0001604,53.2212,228.7318,97.5841,262.5334,0.0002005,2.905e-05,0.0,0 STARLINK-3934,1 52675U 22053V   23103.33484107  .00002905  00000-0  20050-3 0  9992,2 52675  53.2212 228.7318 0001604  97.5841 262.5334 15.08842803 50940,6917.872,95.437,540.846,538.627,0.0
52675.0,STARLINK-3934,PAYLOAD,2023-04-13 14:23:42,15.08847444,5.44e-05,53.2171,227.5412,33.6043,326.4983,0.00031625,4.75e-05,0.0,0 STARLINK-3934,1 52675U 22053V   23103.59979926  .00004750  00000-0  31625-3 0  9998,2 52675  53.2171 227.5412 0000544  33.6043 326.4983 15.08847444 50556,6917.858,95.437,540.099,539.346,0.0
52675.0,STARLINK-3934,PAYLOAD,2023-04-14 07:52:57,15.08846529,0.0001972,53.2139,224.2696,83.1718,276.9498,0.00025616,3.792e-05,0.0,0 STARLINK-3934,1 52675U 22053V   23104.32844296  .00003792  00000-0  25616-3 0  9999,2 52675  53.2139 224.2696 0001972  83.1718 276.9498 15.08846529 51096,6917.86,95.437,541.09,538.361,0.0
52675.0,STARLINK-3934,PAYLOAD,2023-04-15 01:22:11,15.08836713,0.0001285,53.2173,220.9983,59.3943,300.7175,-9.2407e-05,-1.758e-05,0.0,0 STARLINK-3934,1 52675U 22053V   23105.05708103 -.00001758  00000-0 -92407-4 0  9991,2 52675  53.2173 220.9983 0001285  59.3943 300.7175 15.08836713 50774,6917.89,95.438,540.644,538.866,0.0
52675.0,STARLINK-3934,PAYLOAD,2023-04-15 12:29:53,15.08838986,0.0001283,53.2174,218.9183,50.1634,309.9471,7.3242e-05,8.78e-06,0.0,0 STARLINK-3934,1 52675U 22053V   23105.52076174  .00000878  00000-0  73242-4 0  9995,2 52675  53.2174 218.9183 0001283  50.1634 309.9471 15.08838986 51278,6917.883,95.438,540.636,538.861,0.0
52675.0,STARLINK-3934,PAYLOAD,2023-04-15 17:16:02,15.08856076,0.000108,53.2148,218.0215,85.0686,275.043,0.0004778,7.328e-05,0.0,0 STARLINK-3934,1 52675U 22053V   23105.71947596  .00007328  00000-0  47780-3 0  9995,2 52675  53.2148 218.0215 0001080  85.0686 275.0430 15.08856076 50878,6917.831,95.437,540.443,538.949,0.0
52675.0,STARLINK-3934,PAYLOAD,2023-04-16 12:20:41,15.08832259,0.0001279,53.2136,214.455,77.2547,282.8588,8.9003e-05,1.129e-05,0.0,0 STARLINK-3934,1 52675U 22053V   23106.51437010  .00001129  00000-0  89003-4 0  9997,2 52675  53.2136 214.4550 0001279  77.2547 282.8588 15.08832259 50996,6917.904,95.438,540.654,538.884,0.0
52675.0,STARLINK-3934,PAYLOAD,2023-04-16 13:56:04,15.08833043,0.0001181,53.2153,214.1573,87.3188,272.7939,0.00022742,3.333e-05,0.0,0 STARLINK-3934,1 52675U 22053V   23106.58060925  .00003333  00000-0  22742-3 0  9996,2 52675  53.2153 214.1573 0001181  87.3188 272.7939 15.08833043 51432,6917.902,95.438,540.584,538.95,0.0
52675.0,STARLINK-3934,PAYLOAD,2023-04-16 17:06:50,15.08839835,0.0001138,53.2152,213.5614,88.6646,271.4477,0.00046478,7.117e-05,0.0,0 STARLINK-3934,1 52675U 22053V   23106.71308834  .00007117  00000-0  46478-3 0  9991,2 52675  53.2152 213.5614 0001138  88.6646 271.4477 15.08839835 51455,6917.881,95.438,540.533,538.959,0.0
52675.0,STARLINK-3934,PAYLOAD,2023-04-17 13:46:51,15.08858323,0.0001479,53.2161,209.696,82.08,278.036,0.0014024,0.00022113,0.0,0 STARLINK-3934,1 52675U 22053V   23107.57420734  .00022113  00000-0  14024-2 0  9994,2 52675  53.2161 209.6960 0001479  82.0800 278.0360 15.08858323 51584,6917.824,95.436,540.713,538.666,0.0
52675.0,STARLINK-3934,PAYLOAD,2023-04-17 18:33:00,15.08884574,0.0001277,53.216,208.8033,92.0916,268.0222,0.0017592,0.00027855,0.0,0 STARLINK-3934,1 52675U 22053V   23107.77291886  .00027855  00000-0  17592-2 0  9991,2 52675  53.2160 208.8033 0001277  92.0916 268.0222 15.08884574 51189,6917.744,95.435,540.493,538.726,0.0
52675.0,STARLINK-3934,PAYLOAD,2023-04-18 05:40:42,15.08833197,0.0001152,53.2163,206.7226,84.8707,275.2416,-0.00016076,-2.845e-05,0.0,0 STARLINK-3934,1 52675U 22053V   23108.23660537 -.00002845  00000-0 -16076-3 0  9997,2 52675  53.2163 206.7226 0001152  84.8707 275.2416 15.08833197 51250,6917.901,95.438,540.563,538.969,0.0
52675.0,STARLINK-3934,PAYLOAD,2023-04-18 16:48:24,15.08859148,0.000145,53.2159,204.6411,93.8018,266.314,0.0011532,0.00018122,0.0,0 STARLINK-3934,1 52675U 22053V   23108.70028204  .00018122  00000-0  11532-2 0  9992,2 52675  53.2159 204.6411 0001450  93.8018 266.3140 15.08859148 51321,6917.822,95.436,540.69,538.684,0.0
52675.0,STARLINK-3934,PAYLOAD,2023-04-19 05:31:29,15.08852929,0.0001395,53.2156,202.2617,98.6013,261.5137,0.0013264,0.00020892,0.0,0 STARLINK-3934,1 52675U 22053V   23109.23020743  .00020892  00000-0  13264-2 0  9992,2 52675  53.2156 202.2617 0001395  98.6013 261.5137 15.08852929 51408,6917.841,95.437,540.671,538.741,0.0
52675.0,STARLINK-3934,PAYLOAD,2023-04-19 18:14:34,15.08856494,0.0001078,53.2149,199.8808,108.7163,251.3946,0.0017159,0.00027138,0.0,0 STARLINK-3934,1 52675U 22053V   23109.76012672  .00027138  00000-0  17159-2 0  9999,2 52675  53.2149 199.8808 0001078 108.7163 251.3946 15.08856494 51484,6917.83,95.437,540.441,538.949,0.0
52675.0,STARLINK-3934,PAYLOAD,2023-04-20 08:33:03,15.08846866,0.0001065,53.2151,197.2051,106.2546,253.8563,0.00087707,0.00013701,0.0,0 STARLINK-3934,1 52675U 22053V   23110.35628641  .00013701  00000-0  87707-3 0  9993,2 52675  53.2151 197.2051 0001065 106.2546 253.8563 15.08846866 52006,6917.859,95.437,540.461,538.988,0.0
52675.0,STARLINK-3934,PAYLOAD,2023-04-20 14:54:34,15.08881043,0.0001145,53.2152,196.0155,118.1491,241.9617,0.0015081,0.00023822,0.0,0 STARLINK-3934,1 52675U 22053V   23110.62123788  .00023822  00000-0  15081-2 0  9995,2 52675  53.2152 196.0155 0001145 118.1491 241.9617 15.08881043 51619,6917.755,95.435,540.412,538.828,0.0
52675.0,STARLINK-3934,PAYLOAD,2023-04-21 11:34:35,15.0885502,0.000103,53.215,192.1476,115.0016,245.1083,0.00013825,1.914e-05,0.0,0 STARLINK-3934,1 52675U 22053V   23111.48235158  .00001914  00000-0  13825-3 0  9998,2 52675  53.2150 192.1476 0001030 115.0016 245.1083 15.08855020 51745,6917.834,95.437,540.412,538.987,0.0
52675.0,STARLINK-3934,PAYLOAD,2023-04-21 14:45:21,15.0886067,0.0001275,53.215,191.5538,100.7169,259.3966,0.00027296,4.061e-05,0.0,0 STARLINK-3934,1 52675U 22053V   23111.61482959  .00004061  00000-0  27296-3 0  9999,2 52675  53.2150 191.5538 0001275 100.7169 259.3966 15.08860670 52192,6917.817,95.436,540.564,538.8,0.0
52675.0,STARLINK-3934,PAYLOAD,2023-04-21 22:42:17,15.08842513,0.0001232,53.2146,190.0701,89.1414,270.9719,-0.00016156,-2.858e-05,0.0,0 STARLINK-3934,1 52675U 22053V   23111.94603422 -.00002858  00000-0 -16156-3 0  9992,2 52675  53.2146 190.0701 0001232  89.1414 270.9719 15.08842513 52246,6917.873,95.437,540.59,538.885,0.0
52675.0,STARLINK-3934,PAYLOAD,2023-04-22 14:36:09,15.08839933,0.0001593,53.2151,187.0986,87.1055,273.0119,-8.8862e-05,-1.702e-05,0.0,0 STARLINK-3934,1 52675U 22053V   23112.60843874 -.00001702  00000-0 -88862-4 0  9994,2 52675  53.2151 187.0986 0001593  87.1055 273.0119 15.08839933 52343,6917.881,95.438,540.848,538.644,0.0
52675.0,STARLINK-3934,PAYLOAD,2023-04-23 04:54:38,15.08825706,0.0001179,53.2136,184.4196,91.7911,268.3217,-0.00014244,-2.553e-05,0.0,0 STARLINK-3934,1 52675U 22053V   23113.20460771 -.00002553  00000-0 -14244-3 0  9999,2 52675  53.2136 184.4196 0001179  91.7911 268.3217 15.08825706 52004,6917.924,95.438,540.605,538.973,0.0
52675.0,STARLINK-3934,PAYLOAD,2023-04-23 11:16:10,15.08829751,0.0001246,53.214,183.2305,95.8819,264.2315,4.1558e-05,3.73e-06,0.0,0 STARLINK-3934,1 52675U 22053V   23113.46956989  .00000373  00000-0  41558-4 0  9993,2 52675  53.2140 183.2305 0001246  95.8819 264.2315 15.08829751 52474,6917.912,95.438,540.639,538.915,0.0
52675.0,STARLINK-3934,PAYLOAD,2023-04-24 04:45:24,15.0887267,0.0001263,53.2148,179.9589,105.5315,254.5817,0.0011363,0.00017859,0.0,0 STARLINK-3934,1 52675U 22053V   23114.19820331  .00017859  00000-0  11363-2 0  9991,2 52675  53.2148 179.9589 0001263 105.5315 254.5817 15.08872670 52159,6917.781,95.435,540.519,538.772,0.0
